      2.10          N: GNSS NAV DATA                        RINEX VERSION / TYPE
fic2rin                                 09/03/2020 00:17:44 PGM / RUN BY / DATE
                                                            END OF HEADER
11 20  9  2  8  0  0.0-1.757550053298e-04 1.057287590811e-11 0.000000000000e+00
    3.100000000000e+01 1.286562500000e+02 5.626662944525e-09-1.653151133295e+00
    6.757676601410e-06 1.600401860196e-02 6.470829248428e-06 5.153725015640e+03
    2.880000000000e+05-2.942979335785e-07 8.395984414452e-01 2.756714820862e-07
    9.133360986974e-01 2.327187500000e+02 2.036005398060e+00-8.798223624186e-09
    2.546534644818e-10 1.000000000000e+00 2.121000000000e+03 0.000000000000e+00
    2.400000000000e+00 0.000000000000e+00-1.210719347000e-08 3.100000000000e+01
    2.808000000000e+05 4.000000000000e+00
12 20  9  2  8  0  0.0 7.261754944921e-05-5.002220859751e-12 0.000000000000e+00
    2.700000000000e+01-5.231250000000e+01 4.410898017322e-09-2.524599909708e+00
   -2.665445208549e-06 7.904122467153e-03 8.132308721542e-06 5.153633874893e+03
    2.880000000000e+05 1.452863216400e-07-7.103891615772e-01-3.166496753693e-08
    9.769757386181e-01 2.302500000000e+02 1.167368218532e+00-7.829969006781e-09
   -4.271606500985e-10 1.000000000000e+00 2.121000000000e+03 0.000000000000e+00
    2.400000000000e+00 0.000000000000e+00-1.210719347000e-08 2.700000000000e+01
    2.808000000000e+05 4.000000000000e+00
16 20  9  2  8  0  0.0-2.036760561168e-04-5.002220859751e-12 0.000000000000e+00
    7.000000000000e+01-4.712500000000e+01 4.386968449130e-09 1.891787244326e+00
   -2.391636371613e-06 1.153792603873e-02 8.894130587578e-06 5.153562679291e+03
    2.880000000000e+05-3.091990947723e-07-6.915474028451e-01 6.332993507385e-08
    9.771819500877e-01 2.202812500000e+02 6.279082778716e-01-7.900686238152e-09
   -5.118070331030e-10 1.000000000000e+00 2.121000000000e+03 0.000000000000e+00
    2.400000000000e+00 0.000000000000e+00-1.071020960808e-08 7.000000000000e+01
    2.808000000000e+05 4.000000000000e+00
10 20  9  2  8  0  0.0-4.438869655132e-04-1.000444171950e-11 0.000000000000e+00
    9.700000000000e+01-9.865625000000e+01 4.300893435189e-09-3.139986897652e+00
   -5.096197128296e-06 5.850299843587e-03 5.898997187614e-06 5.153670843124e+03
    2.880000000000e+05-4.656612873077e-08 2.357928510398e+00-6.146728992462e-08
    9.666079123794e-01 2.684687500000e+02-2.658241736267e+00-8.029263022462e-09
   -3.507288949806e-10 1.000000000000e+00 2.121000000000e+03 0.000000000000e+00
    2.400000000000e+00 0.000000000000e+00 2.328306436539e-09 9.700000000000e+01
    2.808000000000e+05 4.000000000000e+00
 9 20  9  2  8  0  0.0-2.798405475914e-04-5.798028723802e-12 0.000000000000e+00
    1.240000000000e+02-1.831250000000e+01 4.273035131922e-09 1.448375011684e+00
   -8.996576070786e-07 1.705541275442e-03 1.274421811104e-05 5.153671957016e+03
    2.880000000000e+05 3.911554813385e-08-2.891921534974e+00-3.725290298462e-09
    9.533491171717e-01 1.284062500000e+02 1.765014896321e+00-7.883542666910e-09
    3.739441477033e-10 1.000000000000e+00 2.121000000000e+03 0.000000000000e+00
    2.400000000000e+00 0.000000000000e+00 1.396983861923e-09 1.240000000000e+02
    2.808000000000e+05 4.000000000000e+00
27 20  9  2  8  0  0.0-3.858678974211e-04-9.094947017729e-12 0.000000000000e+00
    8.400000000000e+01 6.746875000000e+01 4.035168080947e-09 1.035300967275e+00
    3.701075911522e-06 8.331457618624e-03 1.141801476479e-05 5.153674896240e+03
    2.880000000000e+05 5.587935447693e-09 2.647925713420e-01 1.154839992523e-07
    9.779845347414e-01 1.677187500000e+02 5.777383610760e-01-7.813182593274e-09
   -1.078616357272e-10 1.000000000000e+00 2.121000000000e+03 0.000000000000e+00
    2.400000000000e+00 0.000000000000e+00 1.862645149231e-09 8.400000000000e+01
    2.808000000000e+05 4.000000000000e+00
15 20  9  2  8  0  0.0-2.064695581794e-04 2.614797267597e-12 0.000000000000e+00
    1.080000000000e+02-3.059375000000e+01 4.941634410337e-09 1.740757616742e-01
   -1.445412635803e-06 1.267916231882e-02 1.133047044277e-05 5.153747047424e+03
    2.880000000000e+05-7.823109626770e-08-2.983923506471e+00 2.365559339523e-07
    9.289415212973e-01 1.463750000000e+02 9.116028523750e-01-8.331061307858e-09
    2.082229590363e-10 1.000000000000e+00 2.121000000000e+03 0.000000000000e+00
    2.400000000000e+00 0.000000000000e+00-1.071020960808e-08 1.080000000000e+02
    2.808000000000e+05 4.000000000000e+00
19 20  9  2  8  0  0.0-1.103524118662e-04 5.115907697473e-12 0.000000000000e+00
    8.200000000000e+01 8.728125000000e+01 3.810873023872e-09-2.745461340788e+00
    4.556030035019e-06 9.302607504651e-03 1.185387372971e-05 5.153706575394e+03
    2.880000000000e+05 1.154839992523e-07 3.692277431547e-01 1.415610313416e-07
    9.821873842755e-01 1.599062500000e+02 1.709863919015e+00-7.529242194588e-09
    1.303625729816e-10 1.000000000000e+00 2.121000000000e+03 0.000000000000e+00
    2.400000000000e+00 0.000000000000e+00-1.536682248116e-08 8.200000000000e+01
    2.808000000000e+05 4.000000000000e+00
21 20  9  2  8  0  0.0 4.257075488567e-05 4.320099833421e-12 0.000000000000e+00
    4.100000000000e+01 7.896875000000e+01 4.813414783761e-09 2.144275671060e+00
    3.864988684654e-06 2.379295788705e-02 1.968815922737e-06 5.155051279068e+03
    2.880000000000e+05 3.557652235031e-07 1.243988664115e+00-7.450580596924e-09
    9.539788697577e-01 3.268437500000e+02-1.294582448258e+00-8.110337828125e-09
   -3.214419607765e-12 1.000000000000e+00 2.121000000000e+03 0.000000000000e+00
    2.400000000000e+00 0.000000000000e+00-1.024454832077e-08 4.100000000000e+01
    2.808000000000e+05 4.000000000000e+00
13 20  9  2  8  0  0.0 4.143454134464e-05 3.524291969370e-12 0.000000000000e+00
    1.010000000000e+02 3.031250000000e+00 4.075169747177e-09 3.837169168355e-01
    1.005828380585e-07 4.429211840034e-03 1.153349876404e-05 5.153697587967e+03
    2.880000000000e+05-3.352761268616e-08-2.747576727645e+00 3.911554813385e-08
    9.683307719834e-01 1.625312500000e+02 1.046797272428e+00-7.806396596324e-09
    4.143029716675e-10 1.000000000000e+00 2.121000000000e+03 0.000000000000e+00
    2.400000000000e+00 0.000000000000e+00-1.117587089539e-08 1.010000000000e+02
    2.808000000000e+05 4.000000000000e+00
25 20  9  2  8  0  0.0 4.342803731561e-05 5.229594535194e-12 0.000000000000e+00
    6.600000000000e+01-5.493750000000e+01 4.686623788121e-09-2.763459191819e+00
   -2.909451723099e-06 9.102273150347e-03 7.599592208862e-06 5.153739364624e+03
    2.880000000000e+05 1.173466444016e-07-7.805340236894e-01-1.825392246246e-07
    9.642407192849e-01 2.330937500000e+02 9.344354033510e-01-7.999618930524e-09
   -4.253748614275e-10 1.000000000000e+00 2.121000000000e+03 0.000000000000e+00
    2.400000000000e+00 0.000000000000e+00 5.587935447693e-09 6.600000000000e+01
    2.808000000000e+05 4.000000000000e+00
32 20  9  2  8  0  0.0 3.409916535020e-04 5.002220859751e-12 0.000000000000e+00
    4.400000000000e+01-1.056250000000e+01 4.235890727566e-09 1.724511908546e+00
   -5.159527063370e-07 4.118995973840e-03 1.174397766590e-05 5.153758775711e+03
    2.880000000000e+05-7.823109626770e-08-2.883087082412e+00 0.000000000000e+00
    9.574280312120e-01 1.474687500000e+02-2.446204240831e+00-7.877470985429e-09
    2.907263956356e-10 1.000000000000e+00 2.121000000000e+03 0.000000000000e+00
    2.400000000000e+00 0.000000000000e+00 4.656612873077e-10 4.400000000000e+01
    2.808000000000e+05 4.000000000000e+00
31 20  9  2  8  0  0.0-6.607780233026e-05-2.387423592154e-12 0.000000000000e+00
    9.700000000000e+01 3.328125000000e+01 5.076282876129e-09-2.153182545381e+00
    1.473352313042e-06 9.625917184167e-03 4.893168807030e-06 5.153638988495e+03
    2.880000000000e+05-2.980232238770e-08-1.802356894096e+00-1.788139343262e-07
    9.567555526405e-01 2.870625000000e+02 1.529515523032e-01-8.316060683022e-09
    4.778770483544e-10 1.000000000000e+00 2.121000000000e+03 0.000000000000e+00
    3.400000000000e+00 0.000000000000e+00-1.303851604462e-08 9.700000000000e+01
    2.808000000000e+05 4.000000000000e+00
26 20  9  2  8  0  0.0 2.718372270465e-04 6.480149750132e-12 0.000000000000e+00
    4.900000000000e+01-5.134375000000e+01 5.151286000310e-09 2.958669145817e+00
   -2.570450305939e-06 4.903294378892e-03 7.247552275658e-06 5.153668090820e+03
    2.880000000000e+05-1.024454832077e-07-8.176418155950e-01-1.117587089539e-08
    9.452428028254e-01 2.324062500000e+02 2.002975412766e-01-8.222485356662e-09
   -4.410898017322e-10 1.000000000000e+00 2.121000000000e+03 0.000000000000e+00
    2.400000000000e+00 0.000000000000e+00 6.984919309616e-09 4.900000000000e+01
    2.808000000000e+05 4.000000000000e+00
17 20  9  2  8  0  0.0 3.199763596058e-04 5.570655048359e-12 0.000000000000e+00
    1.260000000000e+02 7.046875000000e+01 3.830873856987e-09 9.396208569231e-01
    3.652647137642e-06 1.336081291083e-02 1.232326030731e-05 5.153756860733e+03
    2.880000000000e+05-2.365559339523e-07 3.237689682428e-01-7.078051567078e-08
    9.839245380521e-01 1.589687500000e+02-1.637680559557e+00-7.853898574972e-09
    4.285892810353e-12 1.000000000000e+00 2.121000000000e+03 0.000000000000e+00
    3.400000000000e+00 0.000000000000e+00-1.117587089539e-08 1.260000000000e+02
    2.808000000000e+05 4.000000000000e+00
28 20  9  2  8  0  0.0 6.831763312221e-04-3.979039320257e-12 0.000000000000e+00
    8.100000000000e+01-5.425000000000e+01 4.313393955886e-09 1.800576209729e+00
   -2.991408109665e-06 1.841034332756e-02 8.504837751389e-06 5.153663265228e+03
    2.880000000000e+05 3.483146429062e-07-6.878756642568e-01-2.663582563400e-07
    9.762274867419e-01 2.214687500000e+02-1.398538603638e+00-7.702463695673e-09
   -5.782383716635e-10 1.000000000000e+00 2.121000000000e+03 0.000000000000e+00
    3.400000000000e+00 0.000000000000e+00-1.117587089539e-08 8.100000000000e+01
    2.808000000000e+05 4.000000000000e+00
